ICEYE-X48               
1 63253U 25052AV  26068.70765702  .00004541  00000+0  39589-3 0  9999
2 63253  97.6979 322.3976 0002688 141.7433 218.3980 14.97356709 53782
STARLINK-35498          
1 67017U 25293Q   26068.44874579 -.00012569  00000+0 -10476-2 0  9996
2 67017  70.0006  94.9889 0002935 261.5962  98.4864 14.98325601 14859
